{"type": "FeatureCollection", "features": [ {"type": "Feature", "properties": {"norad_id": 31552, "name": "FENGYUN 1C DEB", "group": "fengyun-1c-debris", "lat": 21.633554780102326, "lon": -67.23784465977691, "alt_km": 785.4492750385098, "timestamp": "2025-12-13T10:41:26.049364+00:00", "meta": {"OBJECT_NAME": "FENGYUN 1C DEB", "OBJECT_ID": "1999-025BYT", "EPOCH": "2025-12-12T19:01:01.618176", "MEAN_MOTION": 14.45689233, "ECCENTRICITY": 0.0085566, "INCLINATION": 98.6209, "RA_OF_ASC_NODE": 108.6493, "ARG_OF_PERICENTER": 20.6356, "MEAN_ANOMALY": 339.8256, "EPHEMERIS_TYPE": 0, "CLASSIFICATION_TYPE": "U", "NORAD_CAT_ID": 31552, "ELEMENT_SET_NO": 999, "REV_AT_EPOCH": 95877, "BSTAR": 0.0039948071, "MEAN_MOTION_DOT": 0.00014774, "MEAN_MOTION_DDOT": 0}, "tle": {"line1": "1 31552U 99025BYT 25346.79237984  .00014774  00000+0  39948-2 0  9997", "line2": "2 31552  98.6209 108.6493 0085566  20.6356 339.8256 14.45689233958772"}}, "geometry": {"type": "Point", "coordinates": [-67.23784465977691, 21.633554780102326]}}, {"type": "Feature", "properties": {"norad_id": 31553, "name": "FENGYUN 1C DEB", "group": "fengyun-1c-debris", "lat": 25.93932434316911, "lon": 37.7979704317461, "alt_km": 784.1615307429211, "timestamp": "2025-12-13T10:41:26.049374+00:00", "meta": {"OBJECT_NAME": "FENGYUN 1C DEB", "OBJECT_ID": "1999-025BYU", "EPOCH": "2025-12-12T15:07:46.961760", "MEAN_MOTION": 14.30156343, "ECCENTRICITY": 0.0030129, "INCLINATION": 99.0034, "RA_OF_ASC_NODE": 41.3783, "ARG_OF_PERICENTER": 102.6002, "MEAN_ANOMALY": 50.2079, "EPHEMERIS_TYPE": 0, "CLASSIFICATION_TYPE": "U", "NORAD_CAT_ID": 31553, "ELEMENT_SET_NO": 999, "REV_AT_EPOCH": 95908, "BSTAR": 0.0025442949, "MEAN_MOTION_DOT": 6.575e-05, "MEAN_MOTION_DDOT": 0}, "tle": {"line1": "1 31553U 99025BYU 25346.63040465  .00006575  00000+0  25443-2 0  9992", "line2": "2 31553  99.0034  41.3783 0030129 102.6002  50.2079 14.30156343959080"}}, "geometry": {"type": "Point", "coordinates": [37.7979704317461, 25.93932434316911]}}, {"type": "Feature", "properties": {"norad_id": 31555, "name": "FENGYUN 1C DEB", "group": "fengyun-1c-debris", "lat": -3.4861234317256993, "lon": 121.07814477408041, "alt_km": 639.8046474416469, "timestamp": "2025-12-13T10:41:26.049384+00:00", "meta": {"OBJECT_NAME": "FENGYUN 1C DEB", "OBJECT_ID": "1999-025BYW", "EPOCH": "2025-12-07T02:31:39.558144", "MEAN_MOTION": 14.44158663, "ECCENTRICITY": 0.01545207, "INCLINATION": 99.1039, "RA_OF_ASC_NODE": 294.8535, "ARG_OF_PERICENTER": 213.2009, "MEAN_ANOMALY": 145.9411, "EPHEMERIS_TYPE": 0, "CLASSIFICATION_TYPE": "U", "NORAD_CAT_ID": 31555, "ELEMENT_SET_NO": 999, "REV_AT_EPOCH": 96482, "BSTAR": 0.0022170192, "MEAN_MOTION_DOT": 8.749e-05, "MEAN_MOTION_DDOT": 0}, "tle": {"line1": "1 31555U 99025BYW 25341.10531896  .00008749  00000+0  22170-2 0  9993", "line2": "2 31555  99.1039 294.8535 0154520 213.2009 145.9411 14.44158663964828"}}, "geometry": {"type": "Point", "coordinates": [121.07814477408041, -3.4861234317256993]}}, {"type": "Feature", "properties": {"norad_id": 31558, "name": "FENGYUN 1C DEB", "group": "fengyun-1c-debris", "lat": 81.06237143122092, "lon": 142.5584125453722, "alt_km": 902.7147465815351, "timestamp": "2025-12-13T10:41:26.049394+00:00", "meta": {"OBJECT_NAME": "FENGYUN 1C DEB", "OBJECT_ID": "1999-025BYZ", "EPOCH": "2025-12-12T22:51:49.171680", "MEAN_MOTION": 14.38702039, "ECCENTRICITY": 0.02107079, "INCLINATION": 98.7905, "RA_OF_ASC_NODE": 242.3445, "ARG_OF_PERICENTER": 261.6386, "MEAN_ANOMALY": 159.5836, "EPHEMERIS_TYPE": 0, "CLASSIFICATION_TYPE": "U", "NORAD_CAT_ID": 31558, "ELEMENT_SET_NO": 999, "REV_AT_EPOCH": 97438, "BSTAR": 0.00046260494, "MEAN_MOTION_DOT": 1.781e-05, "MEAN_MOTION_DDOT": 0}, "tle": {"line1": "1 31558U 99025BYZ 25346.95265245  .00001781  00000+0  46260-3 0  9992", "line2": "2 31558  98.7905 242.3445 0210707 261.6386 159.5836 14.38702039974380"}}, "geometry": {"type": "Point", "coordinates": [142.5584125453722, 81.06237143122092]}}, {"type": "Feature", "properties": {"norad_id": 31559, "name": "FENGYUN 1C DEB", "group": "fengyun-1c-debris", "lat": 19.246873089872565, "lon": -61.51550286031744, "alt_km": 719.6281092358477, "timestamp": "2025-12-13T10:41:26.049404+00:00", "meta": {"OBJECT_NAME": "FENGYUN 1C DEB", "OBJECT_ID": "1999-025BZA", "EPOCH": "2025-12-12T09:02:40.847424", "MEAN_MOTION": 14.63565314, "ECCENTRICITY": 0.00541912, "INCLINATION": 98.8668, "RA_OF_ASC_NODE": 300.4604, "ARG_OF_PERICENTER": 194.689, "MEAN_ANOMALY": 318.0708, "EPHEMERIS_TYPE": 0, "CLASSIFICATION_TYPE": "U", "NORAD_CAT_ID": 31559, "ELEMENT_SET_NO": 999, "REV_AT_EPOCH": 97551, "BSTAR": 0.002281435, "MEAN_MOTION_DOT": 0.00012057, "MEAN_MOTION_DDOT": 0}, "tle": {"line1": "1 31559U 99025BZA 25346.37686166  .00012057  00000+0  22814-2 0  9994", "line2": "2 31559  98.8668 300.4604 0054191 194.6890 318.0708 14.63565314975516"}}, "geometry": {"type": "Point", "coordinates": [-61.51550286031744, 19.246873089872565]}}, {"type": "Feature", "properties": {"norad_id": 31560, "name": "FENGYUN 1C DEB", "group": "fengyun-1c-debris", "lat": -40.02369256421787, "lon": -163.75234996557032, "alt_km": 820.5454973663809, "timestamp": "2025-12-13T10:41:26.049417+00:00", "meta": {"OBJECT_NAME": "FENGYUN 1C DEB", "OBJECT_ID": "1999-025BZB", "EPOCH": "2025-12-12T20:07:39.697824", "MEAN_MOTION": 14.21222222, "ECCENTRICITY": 0.01199189, "INCLINATION": 98.5891, "RA_OF_ASC_NODE": 22.9494, "ARG_OF_PERICENTER": 308.172, "MEAN_ANOMALY": 50.8702, "EPHEMERIS_TYPE": 0, "CLASSIFICATION_TYPE": "U", "NORAD_CAT_ID": 31560, "ELEMENT_SET_NO": 999, "REV_AT_EPOCH": 96620, "BSTAR": 8.721488e-05, "MEAN_MOTION_DOT": 1.6e-06, "MEAN_MOTION_DDOT": 0}, "tle": {"line1": "1 31560U 99025BZB 25346.83865391  .00000160  00000+0  87215-4 0  9996", "line2": "2 31560  98.5891  22.9494 0119918 308.1720  50.8702 14.21222222966202"}}, "geometry": {"type": "Point", "coordinates": [-163.75234996557032, -40.02369256421787]}}, {"type": "Feature", "properties": {"norad_id": 31561, "name": "FENGYUN 1C DEB", "group": "fengyun-1c-debris", "lat": -2.245059323432505, "lon": 163.11346916875615, "alt_km": 846.439811604343, "timestamp": "2025-12-13T10:41:26.049427+00:00", "meta": {"OBJECT_NAME": "FENGYUN 1C DEB", "OBJECT_ID": "1999-025BZC", "EPOCH": "2025-12-10T10:41:10.059648", "MEAN_MOTION": 14.0276482, "ECCENTRICITY": 0.00563944, "INCLINATION": 98.7173, "RA_OF_ASC_NODE": 340.586, "ARG_OF_PERICENTER": 189.3628, "MEAN_ANOMALY": 330.3442, "EPHEMERIS_TYPE": 0, "CLASSIFICATION_TYPE": "U", "NORAD_CAT_ID": 31561, "ELEMENT_SET_NO": 999, "REV_AT_EPOCH": 95146, "BSTAR": 0.00072370809, "MEAN_MOTION_DOT": 1.093e-05, "MEAN_MOTION_DDOT": 0}, "tle": {"line1": "1 31561U 99025BZC 25344.44525532  .00001093  00000+0  72371-3 0  9994", "line2": "2 31561  98.7173 340.5860 0056394 189.3628 330.3442 14.02764820951461"}}, "geometry": {"type": "Point", "coordinates": [163.11346916875615, -2.245059323432505]}}, {"type": "Feature", "properties": {"norad_id": 31562, "name": "FENGYUN 1C DEB", "group": "fengyun-1c-debris", "lat": 55.00103071305927, "lon": -27.480525502985245, "alt_km": 783.9534926374836, "timestamp": "2025-12-13T10:41:26.049439+00:00", "meta": {"OBJECT_NAME": "FENGYUN 1C DEB", "OBJECT_ID": "1999-025BZD", "EPOCH": "2025-12-11T16:29:00.797856", "MEAN_MOTION": 14.4205302, "ECCENTRICITY": 0.00571239, "INCLINATION": 99.2575, "RA_OF_ASC_NODE": 137.1433, "ARG_OF_PERICENTER": 286.3713, "MEAN_ANOMALY": 73.1198, "EPHEMERIS_TYPE": 0, "CLASSIFICATION_TYPE": "U", "NORAD_CAT_ID": 31562, "ELEMENT_SET_NO": 999, "REV_AT_EPOCH": 96975, "BSTAR": 0.0014861472, "MEAN_MOTION_DOT": 4.928e-05, "MEAN_MOTION_DDOT": 0}, "tle": {"line1": "1 31562U 99025BZD 25345.68681479  .00004928  00000+0  14861-2 0  9994", "line2": "2 31562  99.2575 137.1433 0057123 286.3713  73.1198 14.42053020969752"}}, "geometry": {"type": "Point", "coordinates": [-27.480525502985245, 55.00103071305927]}}, {"type": "Feature", "properties": {"norad_id": 31563, "name": "FENGYUN 1C DEB", "group": "fengyun-1c-debris", "lat": -36.40363895500755, "lon": -45.677064806841194, "alt_km": 743.6812165623269, "timestamp": "2025-12-13T10:41:26.049450+00:00", "meta": {"OBJECT_NAME": "FENGYUN 1C DEB", "OBJECT_ID": "1999-025BZE", "EPOCH": "2025-12-12T09:07:51.975552", "MEAN_MOTION": 14.65297703, "ECCENTRICITY": 0.01139614, "INCLINATION": 98.9513, "RA_OF_ASC_NODE": 139.8381, "ARG_OF_PERICENTER": 80.0148, "MEAN_ANOMALY": 281.3891, "EPHEMERIS_TYPE": 0, "CLASSIFICATION_TYPE": "U", "NORAD_CAT_ID": 31563, "ELEMENT_SET_NO": 999, "REV_AT_EPOCH": 98539, "BSTAR": 0.00091970882, "MEAN_MOTION_DOT": 5.401e-05, "MEAN_MOTION_DDOT": 0}, "tle": {"line1": "1 31563U 99025BZE 25346.38046268  .00005401  00000+0  91971-3 0  9999", "line2": "2 31563  98.9513 139.8381 0113961  80.0148 281.3891 14.65297703985390"}}, "geometry": {"type": "Point", "coordinates": [-45.677064806841194, -36.40363895500755]}}, {"type": "Feature", "properties": {"norad_id": 31565, "name": "FENGYUN 1C DEB", "group": "fengyun-1c-debris", "lat": 79.26460825951798, "lon": 132.39531252709648, "alt_km": 741.4242645267295, "timestamp": "2025-12-13T10:41:26.049459+00:00", "meta": {"OBJECT_NAME": "FENGYUN 1C DEB", "OBJECT_ID": "1999-025BZG", "EPOCH": "2025-11-29T09:07:25.735008", "MEAN_MOTION": 14.38541647, "ECCENTRICITY": 0.00553237, "INCLINATION": 100.7173, "RA_OF_ASC_NODE": 202.2097, "ARG_OF_PERICENTER": 58.3475, "MEAN_ANOMALY": 302.3085, "EPHEMERIS_TYPE": 0, "CLASSIFICATION_TYPE": "U", "NORAD_CAT_ID": 31565, "ELEMENT_SET_NO": 999, "REV_AT_EPOCH": 64161, "BSTAR": 0.0030186467, "MEAN_MOTION_DOT": 9.348e-05, "MEAN_MOTION_DDOT": 0}, "tle": {"line1": "1 31565U 99025BZG 25333.38015897  .00009348  00000+0  30186-2 0  9995", "line2": "2 31565 100.7173 202.2097 0055323  58.3475 302.3085 14.38541647641615"}}, "geometry": {"type": "Point", "coordinates": [132.39531252709648, 79.26460825951798]}}]}